STARLINK-3750           
1 52311U 22041BC  26162.88874411  .00003580  00000+0  24288-3 0  9991
2 52311  53.1599  26.1806 0001314  80.7281 279.3859 15.08841894230088
STARLINK-3752           
1 52312U 22041BD  26162.84826279 -.00000053  00000+0  14780-4 0  9997
2 52312  53.1590  26.3121 0001634  89.7797 270.3382 15.08830735230082
STARLINK-3749           
1 52313U 22041BE  26162.85195069  .00000075  00000+0  22828-4 0  9990
2 52313  53.1595  26.3457 0001319  91.9056 268.2087 15.08827851230086
STARLINK-3889           
1 52331U 22045A   26162.24474580 -.00000146  00000+0  89384-5 0  9996
2 52331  53.1603 149.0766 0001425  91.8661 268.2494 15.08832081229767
STARLINK-3831           
1 52332U 22045B   26162.65418681  .00000286  00000+0  36073-4 0  9992
2 52332  53.1602 147.2464 0001357  88.0020 272.1127 15.08829429229829
STARLINK-3847           
1 52333U 22045C   26162.25210670 -.00000176  00000+0  70593-5 0  9992
2 52333  53.1605 149.0433 0001310  85.6530 274.4611 15.08831041229755
STARLINK-3880           
1 52334U 22045D   26162.24106679 -.00000739  00000+0 -28338-4 0  9990
2 52334  53.1602 149.0935 0001376  86.2142 273.9007 15.08834654229754
STARLINK-3814           
1 52335U 22045E   26162.23738994  .00000038  00000+0  20486-4 0  9997
2 52335  53.1610 149.1105 0001337  88.6348 271.4796 15.08832717229762
STARLINK-3823           
1 52336U 22045F   26162.27784321  .00000520  00000+0  50757-4 0  9997
2 52336  53.1595 148.7238 0001373  90.0520 270.0628 15.08832891229779
STARLINK-3797           
1 52337U 22045G   26162.64586700 -.00000202  00000+0  54195-5 0  9999
2 52337  53.1597 147.2734 0001303  86.9764 273.1376 15.08832147229828
STARLINK-3792           
1 52339U 22045J   26162.65320263 -.00001801  00000+0 -95184-4 0  9991
2 52339  53.1602 146.8860 0001280  91.1476 268.9662 15.08814694229832
STARLINK-3818           
1 52340U 22045K   26162.25302812  .00000685  00000+0  61117-4 0  9995
2 52340  53.1606 139.0382 0001287  78.4686 281.6450 15.08831902229893
STARLINK-3843           
1 52341U 22045L   26162.28890148  .00002618  00000+0  18260-3 0  9991
2 52341  53.1603 148.8293 0001324  87.1024 273.0119 15.08822524229779
STARLINK-3850           
1 52342U 22045M   26162.65416077  .00000541  00000+0  52074-4 0  9993
2 52342  53.1608 137.3525 0001352  88.7765 271.3381 15.08835862229968
STARLINK-3849           
1 52343U 22045N   26162.65690674 -.00000652  00000+0 -22878-4 0  9995
2 52343  53.1592 147.2223 0001211  79.9620 280.1509 15.08827334229833
STARLINK-3851           
1 52344U 22045P   26162.24570546 -.00004702  00000+0 -27783-3 0  9995
2 52344  53.1605 139.1385 0001257  75.1042 285.0089 15.08799794229907
STARLINK-3852           
1 52345U 22045Q   26162.66984121  .00000151  00000+0  27613-4 0  9995
2 52345  53.1603 137.3313 0001313  85.1274 274.9868 15.08835908229953
STARLINK-3812           
1 52346U 22045R   26162.23926448 -.00000605  00000+0 -19892-4 0  9993
2 52346  53.1603 139.1094 0001492  79.0732 281.0427 15.08828781229905
STARLINK-3826           
1 52347U 22045S   26162.64774695  .00000981  00000+0  79733-4 0  9999
2 52347  53.1600 137.2740 0001347  88.9685 271.1461 15.08833353229960
STARLINK-3829           
1 52348U 22045T   26162.62838862  .00000766  00000+0  66237-4 0  9991
2 52348  53.1597 137.3522 0001349  88.8393 271.2753 15.08825836229964
STARLINK-3819           
1 52349U 22045U   26162.63943153  .00000060  00000+0  21862-4 0  9995
2 52349  53.1595 137.3019 0001325  88.0684 272.0459 15.08828704229962
STARLINK-3754           
1 52350U 22045V   26162.62470787  .00000217  00000+0  31708-4 0  9998
2 52350  53.1601 137.3696 0001358  86.4693 273.6453 15.08831700229962
STARLINK-3838           
1 52352U 22045X   26162.21623399  .00000636  00000+0  58057-4 0  9995
2 52352  53.1603 139.2057 0001405  90.5019 269.6134 15.08830852229901
STARLINK-3807           
1 52353U 22045Y   26162.62102791 -.00000596  00000+0 -19350-4 0  9999
2 52353  53.1594 137.3853 0001308  87.1578 272.9563 15.08833612229964
STARLINK-3877           
1 52355U 22045AA  26162.21992150 -.00001310  00000+0 -64268-4 0  9995
2 52355  53.1600 139.1889 0001215  91.5670 268.5461 15.08820109229901
STARLINK-3801           
1 52356U 22045AB  26162.20887036 -.00000037  00000+0  15746-4 0  9992
2 52356  53.1608 139.2665 0001340  84.7296 275.3848 15.08834986229903
STARLINK-3821           
1 52357U 22045AC  26162.21254666 -.00000432  00000+0 -90794-5 0  9998
2 52357  53.1613 139.2222 0001307  86.1295 273.9846 15.08833759229906
STARLINK-3837           
1 52358U 22045AD  26162.65782757 -.00000362  00000+0 -46268-5 0  9993
2 52358  53.1595 137.2207 0001346  87.5200 272.5945 15.08832906229976
STARLINK-3853           
1 52359U 22045AE  26162.20977045  .00008557  00000+0  55415-3 0  9995
2 52359  53.1597 139.2447 0001166  89.1961 270.9164 15.08901653229903
STARLINK-3728           
1 52361U 22045AG  26162.66518837  .00000940  00000+0  77145-4 0  9991
2 52361  53.1602 137.1882 0001287  95.1505 264.9633 15.08847014229979
