OBJECT_NAME,OBJECT_ID,EPOCH,MEAN_MOTION,ECCENTRICITY,INCLINATION,RA_OF_ASC_NODE,ARG_OF_PERICENTER,MEAN_ANOMALY,EPHEMERIS_TYPE,CLASSIFICATION_TYPE,NORAD_CAT_ID,ELEMENT_SET_NO,REV_AT_EPOCH,BSTAR,MEAN_MOTION_DOT,MEAN_MOTION_DDOT
STARLINK-3750,2022-041BC,2026-06-11T21:19:47.491104,15.08841894,.0001314,53.1599,26.1806,80.7281,279.3859,0,U,52311,999,23008,.24287909E-3,.358E-4,0
STARLINK-3752,2022-041BD,2026-06-11T20:21:29.905056,15.08830735,.00016349,53.1590,26.3121,89.7797,270.3382,0,U,52312,999,23008,.14780445E-4,-.53E-6,0
STARLINK-3749,2022-041BE,2026-06-11T20:26:48.539616,15.08827851,.00013196,53.1595,26.3457,91.9056,268.2087,0,U,52313,999,23008,.22828408E-4,.75E-6,0
STARLINK-3889,2022-045A,2026-06-11T05:52:26.037120,15.08832081,.0001425,53.1603,149.0766,91.8661,268.2494,0,U,52331,999,22976,.89384E-5,-.146E-5,0
STARLINK-3831,2022-045B,2026-06-11T15:42:01.740384,15.08829429,.00013574,53.1602,147.2464,88.0020,272.1127,0,U,52332,999,22982,.36072515E-4,.286E-5,0
STARLINK-3847,2022-045C,2026-06-11T06:03:02.018880,15.08831041,.000131,53.1605,149.0433,85.6530,274.4611,0,U,52333,999,22975,.70593E-5,-.176E-5,0
STARLINK-3880,2022-045D,2026-06-11T05:47:08.170656,15.08834654,.0001376,53.1602,149.0935,86.2142,273.9007,0,U,52334,999,22975,-.28338E-4,-.739E-5,0
STARLINK-3814,2022-045E,2026-06-11T05:41:50.490816,15.08832717,.0001337,53.1610,149.1105,88.6348,271.4796,0,U,52335,999,22976,.20486E-4,.38E-6,0
STARLINK-3823,2022-045F,2026-06-11T06:40:05.653344,15.08832891,.0001373,53.1595,148.7238,90.0520,270.0628,0,U,52336,999,22977,.50757E-4,.52E-5,0
STARLINK-3797,2022-045G,2026-06-11T15:30:02.908800,15.08832147,.00013037,53.1597,147.2734,86.9764,273.1376,0,U,52337,999,22982,.541954E-5,-.202E-5,0
STARLINK-3792,2022-045J,2026-06-11T15:40:36.707232,15.08814694,.00012807,53.1602,146.8860,91.1476,268.9662,0,U,52339,999,22983,-.95183873E-4,-.1801E-4,0
STARLINK-3818,2022-045K,2026-06-11T06:04:21.629568,15.08831902,.0001287,53.1606,139.0382,78.4686,281.6450,0,U,52340,999,22989,.61117E-4,.685E-5,0
STARLINK-3843,2022-045L,2026-06-11T06:56:01.087872,15.08822524,.00013248,53.1603,148.8293,87.1024,273.0119,0,U,52341,999,22977,.18260463E-3,.2618E-4,0
STARLINK-3850,2022-045M,2026-06-11T15:41:59.490528,15.08835862,.00013522,53.1608,137.3525,88.7765,271.3381,0,U,52342,999,22996,.52073603E-4,.541E-5,0
STARLINK-3849,2022-045N,2026-06-11T15:45:56.742336,15.08827334,.00012119,53.1592,147.2223,79.9620,280.1509,0,U,52343,999,22983,-.22877854E-4,-.652E-5,0
STARLINK-3851,2022-045P,2026-06-11T05:53:48.951744,15.08799794,.0001257,53.1605,139.1385,75.1042,285.0089,0,U,52344,999,22990,-.27783E-3,-.4702E-4,0
STARLINK-3852,2022-045Q,2026-06-11T16:04:34.280544,15.08835908,.00013132,53.1603,137.3313,85.1274,274.9868,0,U,52345,999,22995,.27612808E-4,.151E-5,0
STARLINK-3812,2022-045R,2026-06-11T05:44:32.451072,15.08828781,.0001492,53.1603,139.1094,79.0732,281.0427,0,U,52346,999,22990,-.19892E-4,-.605E-5,0
STARLINK-3826,2022-045S,2026-06-11T15:32:45.336480,15.08833353,.00013476,53.1600,137.2740,88.9685,271.1461,0,U,52347,999,22996,.79732582E-4,.981E-5,0
STARLINK-3829,2022-045T,2026-06-11T15:04:52.776768,15.08825836,.00013496,53.1597,137.3522,88.8393,271.2753,0,U,52348,999,22996,.66236855E-4,.766E-5,0
STARLINK-3819,2022-045U,2026-06-11T15:20:46.884192,15.08828704,.00013257,53.1595,137.3019,88.0684,272.0459,0,U,52349,999,22996,.21862369E-4,.6E-6,0
STARLINK-3754,2022-045V,2026-06-11T14:59:34.759968,15.08831700,.00013582,53.1601,137.3696,86.4693,273.6453,0,U,52350,999,22996,.31707772E-4,.217E-5,0
STARLINK-3838,2022-045X,2026-06-11T05:11:22.616736,15.08830852,.0001405,53.1603,139.2057,90.5019,269.6134,0,U,52352,999,22990,.58057E-4,.636E-5,0
STARLINK-3807,2022-045Y,2026-06-11T14:54:16.811424,15.08833612,.00013084,53.1594,137.3853,87.1578,272.9563,0,U,52353,999,22996,-.1935001E-4,-.596E-5,0
STARLINK-3877,2022-045AA,2026-06-11T05:16:41.217600,15.08820109,.00012158,53.1600,139.1889,91.5670,268.5461,0,U,52355,999,22990,-.64267763E-4,-.131E-4,0
STARLINK-3801,2022-045AB,2026-06-11T05:00:46.399104,15.08834986,.00013402,53.1608,139.2665,84.7296,275.3848,0,U,52356,999,22990,.15746444E-4,-.37E-6,0
STARLINK-3821,2022-045AC,2026-06-11T05:06:04.031424,15.08833759,.00013078,53.1613,139.2222,86.1295,273.9846,0,U,52357,999,22990,-.9079393E-5,-.432E-5,0
STARLINK-3837,2022-045AD,2026-06-11T15:47:16.302048,15.08832906,.00013465,53.1595,137.2207,87.5200,272.5945,0,U,52358,999,22997,-.4626784E-5,-.362E-5,0
STARLINK-3853,2022-045AE,2026-06-11T05:02:04.166880,15.08901653,.00011661,53.1597,139.2447,89.1961,270.9164,0,U,52359,999,22990,.55415021E-3,.8557E-4,0
STARLINK-3728,2022-045AG,2026-06-11T15:57:52.275168,15.08847014,.00012876,53.1602,137.1882,95.1505,264.9633,0,U,52361,999,22997,.77145317E-4,.94E-5,0
